STARLINK-36491          
1 67310U 26002F   26027.25001157 -.02106079  00000+0 -29389-1 0  9993
2 67310  42.9994 201.4942 0001499 273.3430 170.9337 15.59169618  4750
STARLINK-36495          
1 67311U 26002G   26027.25001157 -.02111117  00000+0 -29462-1 0  9995
2 67311  42.9994 201.4787 0001550 274.5397 175.4837 15.59174525  4917
STARLINK-36485          
1 67312U 26002H   26027.25001157 -.02107611  00000+0 -29409-1 0  9991
2 67312  42.9995 201.4741 0001572 274.5356 177.4059 15.59172068  4758
STARLINK-36445          
1 67313U 26002J   26027.25001157 -.02107516  00000+0 -29411-1 0  9999
2 67313  42.9997 201.4690 0001464 273.6166 180.2455 15.59170306  4916
STARLINK-36476          
1 67314U 26002K   26027.25001157 -.02110240  00000+0 -29449-1 0  9999
2 67314  42.9995 201.4651 0001469 278.0047 177.7697 15.59174091  4750
STARLINK-36463          
1 67315U 26002L   26027.25001157 -.02111387  00000+0 -29465-1 0  9991
2 67315  42.9993 201.4551 0001553 274.8491 184.7582 15.59175145  4818
STARLINK-36461          
1 67316U 26002M   26027.25001157 -.02109992  00000+0 -29445-1 0  9999
2 67316  42.9993 201.4498 0001487 273.2686 188.2573 15.59173941  4916
STARLINK-36450          
1 67317U 26002N   26027.25001157 -.02110033  00000+0 -29446-1 0  9999
2 67317  42.9993 201.4454 0001550 273.8070 189.6369 15.59173074  4918
STARLINK-36498          
1 67318U 26002P   26027.25001157 -.02108997  00000+0 -29430-1 0  9999
2 67318  42.9993 201.4350 0001449 274.6125 192.6634 15.59173982  4817
STARLINK-36470          
1 67319U 26002Q   26027.25001157 -.02107241  00000+0 -29406-1 0  9994
2 67319  42.9995 201.4409 0001401 271.7439 193.6182 15.59171121  4811
STARLINK-36500          
1 67320U 26002R   26027.25001157 -.02104588  00000+0 -29367-1 0  9993
2 67320  42.9995 201.4315 0001386 276.5164 192.6806 15.59169345  4816
STARLINK-36462          
1 67321U 26002S   26027.25001157 -.02106796  00000+0 -29398-1 0  9991
2 67321  42.9995 201.4217 0001527 275.4967 197.5326 15.59170970  4754
