CCSDS_OMM_VERS = 2.0
CREATION_DATE  = 
ORIGINATOR     = 

OBJECT_NAME    = STARLINK-36491
OBJECT_ID      = 2026-002F
CENTER_NAME    = EARTH
REF_FRAME      = TEME
TIME_SYSTEM    = UTC
MEAN_ELEMENT_THEORY = SGP/SGP4

EPOCH          = 2026-01-27T06:00:00.999648
MEAN_MOTION    = 15.59169618
ECCENTRICITY   = .00014998
INCLINATION    = 42.9994
RA_OF_ASC_NODE = 201.4942
ARG_OF_PERICENTER = 273.3430
MEAN_ANOMALY   = 170.9337

EPHEMERIS_TYPE = 0
CLASSIFICATION_TYPE = U
NORAD_CAT_ID   = 67310
ELEMENT_SET_NO = 999
REV_AT_EPOCH   = 475
BSTAR          = -.29388888E-1
MEAN_MOTION_DOT = -.2106079E-1
MEAN_MOTION_DDOT = 0

CCSDS_OMM_VERS = 2.0
CREATION_DATE  = 
ORIGINATOR     = 

OBJECT_NAME    = STARLINK-36495
OBJECT_ID      = 2026-002G
CENTER_NAME    = EARTH
REF_FRAME      = TEME
TIME_SYSTEM    = UTC
MEAN_ELEMENT_THEORY = SGP/SGP4

EPOCH          = 2026-01-27T06:00:00.999648
MEAN_MOTION    = 15.59174525
ECCENTRICITY   = .00015504
INCLINATION    = 42.9994
RA_OF_ASC_NODE = 201.4787
ARG_OF_PERICENTER = 274.5397
MEAN_ANOMALY   = 175.4837

EPHEMERIS_TYPE = 0
CLASSIFICATION_TYPE = U
NORAD_CAT_ID   = 67311
ELEMENT_SET_NO = 999
REV_AT_EPOCH   = 491
BSTAR          = -.29461734E-1
MEAN_MOTION_DOT = -.2111117E-1
MEAN_MOTION_DDOT = 0

CCSDS_OMM_VERS = 2.0
CREATION_DATE  = 
ORIGINATOR     = 

OBJECT_NAME    = STARLINK-36485
OBJECT_ID      = 2026-002H
CENTER_NAME    = EARTH
REF_FRAME      = TEME
TIME_SYSTEM    = UTC
MEAN_ELEMENT_THEORY = SGP/SGP4

EPOCH          = 2026-01-27T06:00:00.999648
MEAN_MOTION    = 15.59172068
ECCENTRICITY   = .00015721
INCLINATION    = 42.9995
RA_OF_ASC_NODE = 201.4741
ARG_OF_PERICENTER = 274.5356
MEAN_ANOMALY   = 177.4059

EPHEMERIS_TYPE = 0
CLASSIFICATION_TYPE = U
NORAD_CAT_ID   = 67312
ELEMENT_SET_NO = 999
REV_AT_EPOCH   = 475
BSTAR          = -.29409329E-1
MEAN_MOTION_DOT = -.2107611E-1
MEAN_MOTION_DDOT = 0

CCSDS_OMM_VERS = 2.0
CREATION_DATE  = 
ORIGINATOR     = 

OBJECT_NAME    = STARLINK-36445
OBJECT_ID      = 2026-002J
CENTER_NAME    = EARTH
REF_FRAME      = TEME
TIME_SYSTEM    = UTC
MEAN_ELEMENT_THEORY = SGP/SGP4

EPOCH          = 2026-01-27T06:00:00.999648
MEAN_MOTION    = 15.59170306
ECCENTRICITY   = .00014641
INCLINATION    = 42.9997
RA_OF_ASC_NODE = 201.4690
ARG_OF_PERICENTER = 273.6166
MEAN_ANOMALY   = 180.2455

EPHEMERIS_TYPE = 0
CLASSIFICATION_TYPE = U
NORAD_CAT_ID   = 67313
ELEMENT_SET_NO = 999
REV_AT_EPOCH   = 491
BSTAR          = -.29411024E-1
MEAN_MOTION_DOT = -.2107516E-1
MEAN_MOTION_DDOT = 0

CCSDS_OMM_VERS = 2.0
CREATION_DATE  = 
ORIGINATOR     = 

OBJECT_NAME    = STARLINK-36476
OBJECT_ID      = 2026-002K
CENTER_NAME    = EARTH
REF_FRAME      = TEME
TIME_SYSTEM    = UTC
MEAN_ELEMENT_THEORY = SGP/SGP4

EPOCH          = 2026-01-27T06:00:00.999648
MEAN_MOTION    = 15.59174091
ECCENTRICITY   = .00014694
INCLINATION    = 42.9995
RA_OF_ASC_NODE = 201.4651
ARG_OF_PERICENTER = 278.0047
MEAN_ANOMALY   = 177.7697

EPHEMERIS_TYPE = 0
CLASSIFICATION_TYPE = U
NORAD_CAT_ID   = 67314
ELEMENT_SET_NO = 999
REV_AT_EPOCH   = 475
BSTAR          = -.29449369E-1
MEAN_MOTION_DOT = -.211024E-1
MEAN_MOTION_DDOT = 0

CCSDS_OMM_VERS = 2.0
CREATION_DATE  = 
ORIGINATOR     = 

OBJECT_NAME    = STARLINK-36463
OBJECT_ID      = 2026-002L
CENTER_NAME    = EARTH
REF_FRAME      = TEME
TIME_SYSTEM    = UTC
MEAN_ELEMENT_THEORY = SGP/SGP4

EPOCH          = 2026-01-27T06:00:00.999648
MEAN_MOTION    = 15.59175145
ECCENTRICITY   = .00015532
INCLINATION    = 42.9993
RA_OF_ASC_NODE = 201.4551
ARG_OF_PERICENTER = 274.8491
MEAN_ANOMALY   = 184.7582

EPHEMERIS_TYPE = 0
CLASSIFICATION_TYPE = U
NORAD_CAT_ID   = 67315
ELEMENT_SET_NO = 999
REV_AT_EPOCH   = 481
BSTAR          = -.29465234E-1
MEAN_MOTION_DOT = -.2111387E-1
MEAN_MOTION_DDOT = 0

CCSDS_OMM_VERS = 2.0
CREATION_DATE  = 
ORIGINATOR     = 

OBJECT_NAME    = STARLINK-36461
OBJECT_ID      = 2026-002M
CENTER_NAME    = EARTH
REF_FRAME      = TEME
TIME_SYSTEM    = UTC
MEAN_ELEMENT_THEORY = SGP/SGP4

EPOCH          = 2026-01-27T06:00:00.999648
MEAN_MOTION    = 15.59173941
ECCENTRICITY   = .00014879
INCLINATION    = 42.9993
RA_OF_ASC_NODE = 201.4498
ARG_OF_PERICENTER = 273.2686
MEAN_ANOMALY   = 188.2573

EPHEMERIS_TYPE = 0
CLASSIFICATION_TYPE = U
NORAD_CAT_ID   = 67316
ELEMENT_SET_NO = 999
REV_AT_EPOCH   = 491
BSTAR          = -.29445441E-1
MEAN_MOTION_DOT = -.2109992E-1
MEAN_MOTION_DDOT = 0

CCSDS_OMM_VERS = 2.0
CREATION_DATE  = 
ORIGINATOR     = 

OBJECT_NAME    = STARLINK-36450
OBJECT_ID      = 2026-002N
CENTER_NAME    = EARTH
REF_FRAME      = TEME
TIME_SYSTEM    = UTC
MEAN_ELEMENT_THEORY = SGP/SGP4

EPOCH          = 2026-01-27T06:00:00.999648
MEAN_MOTION    = 15.59173074
ECCENTRICITY   = .00015504
INCLINATION    = 42.9993
RA_OF_ASC_NODE = 201.4454
ARG_OF_PERICENTER = 273.8070
MEAN_ANOMALY   = 189.6369

EPHEMERIS_TYPE = 0
CLASSIFICATION_TYPE = U
NORAD_CAT_ID   = 67317
ELEMENT_SET_NO = 999
REV_AT_EPOCH   = 491
BSTAR          = -.29446386E-1
MEAN_MOTION_DOT = -.2110033E-1
MEAN_MOTION_DDOT = 0

CCSDS_OMM_VERS = 2.0
CREATION_DATE  = 
ORIGINATOR     = 

OBJECT_NAME    = STARLINK-36498
OBJECT_ID      = 2026-002P
CENTER_NAME    = EARTH
REF_FRAME      = TEME
TIME_SYSTEM    = UTC
MEAN_ELEMENT_THEORY = SGP/SGP4

EPOCH          = 2026-01-27T06:00:00.999648
MEAN_MOTION    = 15.59173982
ECCENTRICITY   = .00014498
INCLINATION    = 42.9993
RA_OF_ASC_NODE = 201.4350
ARG_OF_PERICENTER = 274.6125
MEAN_ANOMALY   = 192.6634

EPHEMERIS_TYPE = 0
CLASSIFICATION_TYPE = U
NORAD_CAT_ID   = 67318
ELEMENT_SET_NO = 999
REV_AT_EPOCH   = 481
BSTAR          = -.29430221E-1
MEAN_MOTION_DOT = -.2108997E-1
MEAN_MOTION_DDOT = 0

CCSDS_OMM_VERS = 2.0
CREATION_DATE  = 
ORIGINATOR     = 

OBJECT_NAME    = STARLINK-36470
OBJECT_ID      = 2026-002Q
CENTER_NAME    = EARTH
REF_FRAME      = TEME
TIME_SYSTEM    = UTC
MEAN_ELEMENT_THEORY = SGP/SGP4

EPOCH          = 2026-01-27T06:00:00.999648
MEAN_MOTION    = 15.59171121
ECCENTRICITY   = .00014013
INCLINATION    = 42.9995
RA_OF_ASC_NODE = 201.4409
ARG_OF_PERICENTER = 271.7439
MEAN_ANOMALY   = 193.6182

EPHEMERIS_TYPE = 0
CLASSIFICATION_TYPE = U
NORAD_CAT_ID   = 67319
ELEMENT_SET_NO = 999
REV_AT_EPOCH   = 481
BSTAR          = -.29406466E-1
MEAN_MOTION_DOT = -.2107241E-1
MEAN_MOTION_DDOT = 0

CCSDS_OMM_VERS = 2.0
CREATION_DATE  = 
ORIGINATOR     = 

OBJECT_NAME    = STARLINK-36500
OBJECT_ID      = 2026-002R
CENTER_NAME    = EARTH
REF_FRAME      = TEME
TIME_SYSTEM    = UTC
MEAN_ELEMENT_THEORY = SGP/SGP4

EPOCH          = 2026-01-27T06:00:00.999648
MEAN_MOTION    = 15.59169345
ECCENTRICITY   = .00013863
INCLINATION    = 42.9995
RA_OF_ASC_NODE = 201.4315
ARG_OF_PERICENTER = 276.5164
MEAN_ANOMALY   = 192.6806

EPHEMERIS_TYPE = 0
CLASSIFICATION_TYPE = U
NORAD_CAT_ID   = 67320
ELEMENT_SET_NO = 999
REV_AT_EPOCH   = 481
BSTAR          = -.29367079E-1
MEAN_MOTION_DOT = -.2104588E-1
MEAN_MOTION_DDOT = 0

CCSDS_OMM_VERS = 2.0
CREATION_DATE  = 
ORIGINATOR     = 

OBJECT_NAME    = STARLINK-36462
OBJECT_ID      = 2026-002S
CENTER_NAME    = EARTH
REF_FRAME      = TEME
TIME_SYSTEM    = UTC
MEAN_ELEMENT_THEORY = SGP/SGP4

EPOCH          = 2026-01-27T06:00:00.999648
MEAN_MOTION    = 15.59170970
ECCENTRICITY   = .00015275
INCLINATION    = 42.9995
RA_OF_ASC_NODE = 201.4217
ARG_OF_PERICENTER = 275.4967
MEAN_ANOMALY   = 197.5326

EPHEMERIS_TYPE = 0
CLASSIFICATION_TYPE = U
NORAD_CAT_ID   = 67321
ELEMENT_SET_NO = 999
REV_AT_EPOCH   = 475
BSTAR          = -.29398299E-1
MEAN_MOTION_DOT = -.2106796E-1
MEAN_MOTION_DDOT = 0

